{
  "type": "FeatureCollection",
  "metadata": {
    "merged_at": "2026-06-26T06:05:12.436Z",
    "sources": [
      "public/export.geojson",
      "public/buildings.geojson"
    ],
    "export_features": 60,
    "buildings_catalog": 15,
    "total_features": 66
  },
  "features": [
    {
      "type": "Feature",
      "properties": {
        "building_id": "w-e-o-bryant-bell-tower",
        "name": "W.E. O'Bryant Bell Tower",
        "code": "",
        "map_number": null,
        "osm_id": "way/487157438"
      },
      "geometry": {
        "type": "Polygon",
        "coordinates": [
          [
            [
              -92.0206301,
              34.2422627
            ],
            [
              -92.0206308,
              34.2422161
            ],
            [
              -92.0205724,
              34.2422161
            ],
            [
              -92.0205738,
              34.2422616
            ],
            [
              -92.0206301,
              34.2422627
            ]
          ]
        ]
      }
    },
    {
      "type": "Feature",
      "properties": {
        "building_id": "caldwell-hall",
        "name": "Caldwell hall",
        "code": "CALD",
        "map_number": 26,
        "osm_id": "way/818591095"
      },
      "geometry": {
        "type": "Polygon",
        "coordinates": [
          [
            [
              -92.0196245,
              34.2425607
            ],
            [
              -92.0196249,
              34.2424912
            ],
            [
              -92.0196024,
              34.2424911
            ],
            [
              -92.0196031,
              34.2423795
            ],
            [
              -92.0196208,
              34.2423796
            ],
            [
              -92.019621,
              34.2423477
            ],
            [
              -92.019808,
              34.2423485
            ],
            [
              -92.0198085,
              34.2422642
            ],
            [
              -92.0198842,
              34.2422645
            ],
            [
              -92.0198848,
              34.2421723
            ],
            [
              -92.0198148,
              34.242172
            ],
            [
              -92.0198152,
              34.242102
            ],
            [
              -92.0197086,
              34.2421015
            ],
            [
              -92.0196371,
              34.2421012
            ],
            [
              -92.0196373,
              34.2420596
            ],
            [
              -92.0196158,
              34.2420595
            ],
            [
              -92.0196163,
              34.2419881
            ],
            [
              -92.0196167,
              34.2419286
            ],
            [
              -92.019639,
              34.2419287
            ],
            [
              -92.0196393,
              34.241881
            ],
            [
              -92.0193598,
              34.2418797
            ],
            [
              -92.0193594,
              34.2419334
            ],
            [
              -92.019396,
              34.2419336
            ],
            [
              -92.0193919,
              34.2424861
            ],
            [
              -92.0193692,
              34.242486
            ],
            [
              -92.0193687,
              34.2425594
            ],
            [
              -92.0196245,
              34.2425607
            ]
          ]
        ]
      }
    },
    {
      "type": "Feature",
      "properties": {
        "building_id": "henderson-young-hall",
        "name": "Henderson-Young Hall",
        "code": "HYH",
        "map_number": 28,
        "osm_id": "way/818591096"
      },
      "geometry": {
        "type": "Polygon",
        "coordinates": [
          [
            [
              -92.0213576,
              34.2424589
            ],
            [
              -92.0213981,
              34.2424621
            ],
            [
              -92.0213981,
              34.2424239
            ],
            [
              -92.0214405,
              34.2424239
            ],
            [
              -92.0214444,
              34.2423076
            ],
            [
              -92.0214636,
              34.2423076
            ],
            [
              -92.0214733,
              34.2422869
            ],
            [
              -92.021481,
              34.2422502
            ],
            [
              -92.0214832,
              34.2422234
            ],
            [
              -92.0214848,
              34.242204
            ],
            [
              -92.0214848,
              34.2421738
            ],
            [
              -92.0214829,
              34.2421323
            ],
            [
              -92.0214713,
              34.2421037
            ],
            [
              -92.0214501,
              34.2421037
            ],
            [
              -92.0214501,
              34.2419858
            ],
            [
              -92.021402,
              34.2419842
            ],
            [
              -92.0213981,
              34.2419555
            ],
            [
              -92.0213596,
              34.2419571
            ],
            [
              -92.0213596,
              34.2419332
            ],
            [
              -92.0213384,
              34.2419157
            ],
            [
              -92.0213191,
              34.2419077
            ],
            [
              -92.0212979,
              34.2419077
            ],
            [
              -92.0212767,
              34.2419109
            ],
            [
              -92.0212555,
              34.2419252
            ],
            [
              -92.0212555,
              34.2419491
            ],
            [
              -92.0212073,
              34.2419491
            ],
            [
              -92.0212073,
              34.2419842
            ],
            [
              -92.0211572,
              34.2419842
            ],
            [
              -92.0211572,
              34.2420989
            ],
            [
              -92.0211341,
              34.2420989
            ],
            [
              -92.0211303,
              34.2421339
            ],
            [
              -92.0211206,
              34.2421706
            ],
            [
              -92.0211148,
              34.2421992
            ],
            [
              -92.0211168,
              34.2422247
            ],
            [
              -92.0211283,
              34.2422662
            ],
            [
              -92.021136,
              34.2423012
            ],
            [
              -92.0211553,
              34.2423012
            ],
            [
              -92.0211534,
              34.2424095
            ],
            [
              -92.0211958,
              34.2424111
            ],
            [
              -92.0211958,
              34.2424573
            ],
            [
              -92.021242,
              34.2424573
            ],
            [
              -92.0212497,
              34.2424796
            ],
            [
              -92.021269,
              34.2424908
            ],
            [
              -92.021296,
              34.2424971
            ],
            [
              -92.021321,
              34.242494
            ],
            [
              -92.0213442,
              34.2424796
            ],
            [
              -92.0213576,
              34.2424589
            ]
          ]
        ]
      }
    },
    {
      "type": "Feature",
      "properties": {
        "building_id": "lewis-hall",
        "name": "Lewis Hall",
        "code": "",
        "map_number": null,
        "osm_id": "way/818591097"
      },
      "geometry": {
        "type": "Polygon",
        "coordinates": [
          [
            [
              -92.0210597,
              34.2432306
            ],
            [
              -92.0210601,
              34.2431909
            ],
            [
              -92.0210797,
              34.2431911
            ],
            [
              -92.0210808,
              34.2431015
            ],
            [
              -92.0213038,
              34.2431033
            ],
            [
              -92.0213053,
              34.242973
            ],
            [
              -92.020718,
              34.2429683
            ],
            [
              -92.0207165,
              34.2430983
            ],
            [
              -92.0209331,
              34.2431001
            ],
            [
              -92.0209321,
              34.2431892
            ],
            [
              -92.0209513,
              34.2431893
            ],
            [
              -92.0209508,
              34.2432298
            ],
            [
              -92.0210597,
              34.2432306
            ]
          ]
        ]
      }
    },
    {
      "type": "Feature",
      "properties": {
        "building_id": "douglas-hall",
        "name": "Douglas Hall",
        "code": "",
        "map_number": null,
        "osm_id": "way/818591098"
      },
      "geometry": {
        "type": "Polygon",
        "coordinates": [
          [
            [
              -92.0206337,
              34.2431014
            ],
            [
              -92.0206366,
              34.2429797
            ],
            [
              -92.0205554,
              34.2429784
            ],
            [
              -92.0205175,
              34.2429778
            ],
            [
              -92.0205179,
              34.2429593
            ],
            [
              -92.020223,
              34.2429546
            ],
            [
              -92.0202226,
              34.2429704
            ],
            [
              -92.0201433,
              34.2429691
            ],
            [
              -92.0201404,
              34.2430947
            ],
            [
              -92.0202638,
              34.2430967
            ],
            [
              -92.0202644,
              34.243073
            ],
            [
              -92.0204855,
              34.2430766
            ],
            [
              -92.0204849,
              34.243099
            ],
            [
              -92.0206337,
              34.2431014
            ]
          ]
        ]
      }
    },
    {
      "type": "Feature",
      "properties": {
        "building_id": "childress-hall",
        "name": "Childress Hall",
        "code": "",
        "map_number": null,
        "osm_id": "way/818591099"
      },
      "geometry": {
        "type": "Polygon",
        "coordinates": [
          [
            [
              -92.0200291,
              34.243513
            ],
            [
              -92.0200303,
              34.243278
            ],
            [
              -92.0199323,
              34.2432777
            ],
            [
              -92.0198567,
              34.2432775
            ],
            [
              -92.0198565,
              34.243308
            ],
            [
              -92.0196066,
              34.2433073
            ],
            [
              -92.0196065,
              34.2433328
            ],
            [
              -92.0195365,
              34.2433326
            ],
            [
              -92.0195363,
              34.2433774
            ],
            [
              -92.0196076,
              34.2433776
            ],
            [
              -92.0196075,
              34.2434109
            ],
            [
              -92.0197768,
              34.2434114
            ],
            [
              -92.0197763,
              34.2435122
            ],
            [
              -92.0200291,
              34.243513
            ]
          ]
        ]
      }
    },
    {
      "type": "Feature",
      "properties": {
        "building_id": "administration-building",
        "name": "Administration Building",
        "code": "",
        "map_number": null,
        "osm_id": "way/818591102"
      },
      "geometry": {
        "type": "Polygon",
        "coordinates": [
          [
            [
              -92.0189724,
              34.2440413
            ],
            [
              -92.0186622,
              34.243765
            ],
            [
              -92.0185083,
              34.2438982
            ],
            [
              -92.0185035,
              34.2441546
            ],
            [
              -92.0188281,
              34.2441566
            ],
            [
              -92.0189724,
              34.2440413
            ]
          ]
        ]
      }
    },
    {
      "type": "Feature",
      "properties": {
        "building_id": "human-sciences-building",
        "name": "Human Sciences Building",
        "code": "HSB",
        "map_number": 13,
        "osm_id": "way/818591103"
      },
      "geometry": {
        "type": "Polygon",
        "coordinates": [
          [
            [
              -92.02029,
              34.2441643
            ],
            [
              -92.0202954,
              34.2440702
            ],
            [
              -92.0204067,
              34.2440713
            ],
            [
              -92.0204108,
              34.2439604
            ],
            [
              -92.0203011,
              34.2439587
            ],
            [
              -92.0202985,
              34.243865
            ],
            [
              -92.020205,
              34.2438644
            ],
            [
              -92.020205,
              34.2438388
            ],
            [
              -92.0201879,
              34.2438394
            ],
            [
              -92.020095,
              34.2438405
            ],
            [
              -92.020095,
              34.2438647
            ],
            [
              -92.0199089,
              34.2438602
            ],
            [
              -92.0199069,
              34.2438357
            ],
            [
              -92.0198496,
              34.2438318
            ],
            [
              -92.0197997,
              34.2438335
            ],
            [
              -92.0198004,
              34.2438586
            ],
            [
              -92.0196665,
              34.2438586
            ],
            [
              -92.0196645,
              34.2439489
            ],
            [
              -92.0195962,
              34.2439489
            ],
            [
              -92.0195949,
              34.2440597
            ],
            [
              -92.0196665,
              34.2440619
            ],
            [
              -92.0196651,
              34.2441561
            ],
            [
              -92.019797,
              34.2441583
            ],
            [
              -92.019795,
              34.2441765
            ],
            [
              -92.0198069,
              34.2441753
            ],
            [
              -92.0198408,
              34.2441787
            ],
            [
              -92.019902,
              34.2441787
            ],
            [
              -92.0199021,
              34.2441602
            ],
            [
              -92.020091,
              34.2441631
            ],
            [
              -92.0200888,
              34.244181
            ],
            [
              -92.0201975,
              34.2441844
            ],
            [
              -92.0202002,
              34.2441643
            ],
            [
              -92.02029,
              34.2441643
            ]
          ]
        ]
      }
    },
    {
      "type": "Feature",
      "properties": {
        "building_id": "child-development-center",
        "name": "Child Development Center",
        "code": "",
        "map_number": null,
        "osm_id": "way/818591104"
      },
      "geometry": {
        "type": "Polygon",
        "coordinates": [
          [
            [
              -92.0199699,
              34.2445188
            ],
            [
              -92.0199724,
              34.2444459
            ],
            [
              -92.0200017,
              34.2444429
            ],
            [
              -92.0200068,
              34.2443456
            ],
            [
              -92.0199785,
              34.2443424
            ],
            [
              -92.0199784,
              34.2442606
            ],
            [
              -92.0198374,
              34.2442566
            ],
            [
              -92.0198408,
              34.2441787
            ],
            [
              -92.0198069,
              34.2441753
            ],
            [
              -92.0198062,
              34.2442566
            ],
            [
              -92.0197592,
              34.2442532
            ],
            [
              -92.0197543,
              34.2444442
            ],
            [
              -92.0198165,
              34.2444482
            ],
            [
              -92.0198117,
              34.2445176
            ],
            [
              -92.0199699,
              34.2445188
            ]
          ]
        ]
      }
    },
    {
      "type": "Feature",
      "properties": {
        "building_id": "fitness-center",
        "name": "Fitness Center",
        "code": "",
        "map_number": null,
        "osm_id": "way/818591105"
      },
      "geometry": {
        "type": "Polygon",
        "coordinates": [
          [
            [
              -92.020542,
              34.2440905
            ],
            [
              -92.0207547,
              34.2440921
            ],
            [
              -92.0207569,
              34.2438949
            ],
            [
              -92.0207135,
              34.243891
            ],
            [
              -92.020626,
              34.2438893
            ],
            [
              -92.0205493,
              34.2438932
            ],
            [
              -92.020542,
              34.2440905
            ]
          ]
        ]
      }
    },
    {
      "type": "Feature",
      "properties": {
        "building_id": "infirmary-building",
        "name": "Infirmary Building",
        "code": "",
        "map_number": null,
        "osm_id": "way/818591106"
      },
      "geometry": {
        "type": "Polygon",
        "coordinates": [
          [
            [
              -92.020844,
              34.2438101
            ],
            [
              -92.0208449,
              34.2437561
            ],
            [
              -92.0208779,
              34.2437565
            ],
            [
              -92.0210978,
              34.243759
            ],
            [
              -92.0210999,
              34.2436328
            ],
            [
              -92.0209192,
              34.2436308
            ],
            [
              -92.020842,
              34.2436299
            ],
            [
              -92.0208428,
              34.2435831
            ],
            [
              -92.0207446,
              34.243582
            ],
            [
              -92.0207409,
              34.2438089
            ],
            [
              -92.020844,
              34.2438101
            ]
          ]
        ]
      }
    },
    {
      "type": "Feature",
      "properties": {
        "building_id": "walker-research-center",
        "name": "Walker Research Center",
        "code": "WRC",
        "map_number": 18,
        "osm_id": "way/818591107"
      },
      "geometry": {
        "type": "Polygon",
        "coordinates": [
          [
            [
              -92.0214586,
              34.2438134
            ],
            [
              -92.021468,
              34.2435204
            ],
            [
              -92.021323,
              34.2435172
            ],
            [
              -92.021178,
              34.2435141
            ],
            [
              -92.0211687,
              34.2438071
            ],
            [
              -92.0214586,
              34.2438134
            ]
          ]
        ]
      }
    },
    {
      "type": "Feature",
      "properties": {
        "building_id": "john-b-watson-library",
        "name": "John B. Watson Library",
        "code": "JBWL",
        "map_number": 29,
        "osm_id": "way/818591116"
      },
      "geometry": {
        "type": "Polygon",
        "coordinates": [
          [
            [
              -92.0225478,
              34.2422924
            ],
            [
              -92.0225536,
              34.2418969
            ],
            [
              -92.0221119,
              34.2418925
            ],
            [
              -92.0220816,
              34.2418922
            ],
            [
              -92.0220793,
              34.2420488
            ],
            [
              -92.0220776,
              34.242166
            ],
            [
              -92.0220759,
              34.2422877
            ],
            [
              -92.0225478,
              34.2422924
            ]
          ]
        ]
      }
    },
    {
      "type": "Feature",
      "properties": {
        "building_id": "la-davis-student-union",
        "name": "L.A. David Sr. Student Union",
        "code": "LDSU",
        "map_number": 25,
        "osm_id": "way/818591118"
      },
      "geometry": {
        "type": "Polygon",
        "coordinates": [
          [
            [
              -92.0221226,
              34.2430372
            ],
            [
              -92.0226833,
              34.2430409
            ],
            [
              -92.0226834,
              34.2430272
            ],
            [
              -92.0229092,
              34.2430287
            ],
            [
              -92.022913,
              34.2426326
            ],
            [
              -92.0227869,
              34.2426318
            ],
            [
              -92.0227871,
              34.2426081
            ],
            [
              -92.022676,
              34.2426074
            ],
            [
              -92.0226764,
              34.2425629
            ],
            [
              -92.0220261,
              34.2425586
            ],
            [
              -92.0220233,
              34.2428483
            ],
            [
              -92.0221244,
              34.242849
            ],
            [
              -92.0221234,
              34.2429533
            ],
            [
              -92.0221226,
              34.2430372
            ]
          ]
        ]
      }
    },
    {
      "type": "Feature",
      "properties": {
        "building_id": "larrison-hall",
        "name": "Larrison Hall",
        "code": "",
        "map_number": null,
        "osm_id": "way/818591119"
      },
      "geometry": {
        "type": "Polygon",
        "coordinates": [
          [
            [
              -92.0225377,
              34.243703
            ],
            [
              -92.0225461,
              34.2433395
            ],
            [
              -92.0226464,
              34.2433395
            ],
            [
              -92.0226514,
              34.2431405
            ],
            [
              -92.0223137,
              34.2431377
            ],
            [
              -92.0223126,
              34.2432298
            ],
            [
              -92.022307,
              34.2437003
            ],
            [
              -92.0225377,
              34.243703
            ]
          ]
        ]
      }
    },
    {
      "type": "Feature",
      "properties": {
        "building_id": "woodward-hall",
        "name": "Woodward Hall",
        "code": "WWH",
        "map_number": 15,
        "osm_id": "way/818591120"
      },
      "geometry": {
        "type": "Polygon",
        "coordinates": [
          [
            [
              -92.0224428,
              34.2440634
            ],
            [
              -92.0224482,
              34.243873
            ],
            [
              -92.0218264,
              34.2438605
            ],
            [
              -92.021827,
              34.2439656
            ],
            [
              -92.0218231,
              34.2440515
            ],
            [
              -92.0221101,
              34.2440584
            ],
            [
              -92.0221083,
              34.2441548
            ],
            [
              -92.0222162,
              34.2441566
            ],
            [
              -92.0222186,
              34.2440617
            ],
            [
              -92.0224428,
              34.2440634
            ]
          ]
        ]
      }
    },
    {
      "type": "Feature",
      "properties": {
        "building_id": "holiday-hall",
        "name": "Holiday Hall",
        "code": "HLD",
        "map_number": 19,
        "osm_id": "way/818591121"
      },
      "geometry": {
        "type": "Polygon",
        "coordinates": [
          [
            [
              -92.02212,
              34.2437402
            ],
            [
              -92.0221261,
              34.2434438
            ],
            [
              -92.0221574,
              34.2434443
            ],
            [
              -92.0221612,
              34.2432587
            ],
            [
              -92.0221257,
              34.2432582
            ],
            [
              -92.022126,
              34.2432431
            ],
            [
              -92.0219488,
              34.2432406
            ],
            [
              -92.0219476,
              34.2433021
            ],
            [
              -92.0218924,
              34.2433013
            ],
            [
              -92.021883,
              34.2437617
            ],
            [
              -92.0220221,
              34.2437637
            ],
            [
              -92.0220226,
              34.2437388
            ],
            [
              -92.02212,
              34.2437402
            ]
          ]
        ]
      }
    },
    {
      "type": "Feature",
      "properties": {
        "building_id": "harrold-complex",
        "name": "Harrold Complex",
        "code": "",
        "map_number": null,
        "osm_id": "way/818591125"
      },
      "geometry": {
        "type": "Polygon",
        "coordinates": [
          [
            [
              -92.023934,
              34.2426819
            ],
            [
              -92.0239366,
              34.2425594
            ],
            [
              -92.0235079,
              34.2425531
            ],
            [
              -92.0235163,
              34.2421629
            ],
            [
              -92.0238003,
              34.2421671
            ],
            [
              -92.0237927,
              34.2425257
            ],
            [
              -92.023952,
              34.242528
            ],
            [
              -92.0239625,
              34.2420387
            ],
            [
              -92.0239445,
              34.2420385
            ],
            [
              -92.0239467,
              34.2419315
            ],
            [
              -92.0239626,
              34.2419317
            ],
            [
              -92.023973,
              34.2414357
            ],
            [
              -92.0238217,
              34.2414336
            ],
            [
              -92.0238137,
              34.2418154
            ],
            [
              -92.0235361,
              34.2418114
            ],
            [
              -92.0235446,
              34.2414055
            ],
            [
              -92.0239885,
              34.2414119
            ],
            [
              -92.0239915,
              34.2412706
            ],
            [
              -92.0233826,
              34.2412617
            ],
            [
              -92.0233525,
              34.2426735
            ],
            [
              -92.023934,
              34.2426819
            ]
          ]
        ]
      }
    },
    {
      "type": "Feature",
      "properties": {
        "building_id": "stem-building",
        "name": "STEM Building",
        "code": "STEM",
        "map_number": 16,
        "osm_id": "way/818591126"
      },
      "geometry": {
        "type": "Polygon",
        "coordinates": [
          [
            [
              -92.02339,
              34.2443854
            ],
            [
              -92.0235681,
              34.2443993
            ],
            [
              -92.0235681,
              34.2443774
            ],
            [
              -92.023621,
              34.2443774
            ],
            [
              -92.0236306,
              34.2442899
            ],
            [
              -92.0237389,
              34.2442939
            ],
            [
              -92.0237389,
              34.244262
            ],
            [
              -92.023775,
              34.244262
            ],
            [
              -92.0238328,
              34.244262
            ],
            [
              -92.023917,
              34.2442481
            ],
            [
              -92.0239868,
              34.2442322
            ],
            [
              -92.0239652,
              34.2440173
            ],
            [
              -92.0239122,
              34.2440134
            ],
            [
              -92.0238424,
              34.2440114
            ],
            [
              -92.0237654,
              34.2440114
            ],
            [
              -92.0237077,
              34.2440213
            ],
            [
              -92.0236667,
              34.2440452
            ],
            [
              -92.0236379,
              34.2439716
            ],
            [
              -92.0236042,
              34.2439815
            ],
            [
              -92.023556,
              34.2438701
            ],
            [
              -92.0234766,
              34.243898
            ],
            [
              -92.0234574,
              34.2438582
            ],
            [
              -92.0233274,
              34.243894
            ],
            [
              -92.0234116,
              34.2441467
            ],
            [
              -92.02339,
              34.2443854
            ]
          ]
        ]
      }
    },
    {
      "type": "Feature",
      "properties": {
        "building_id": "alumni-house",
        "name": "Alumni House",
        "code": "",
        "map_number": null,
        "osm_id": "way/818591127"
      },
      "geometry": {
        "type": "Polygon",
        "coordinates": [
          [
            [
              -92.0207534,
              34.2449723
            ],
            [
              -92.0207539,
              34.24488
            ],
            [
              -92.0207825,
              34.2448801
            ],
            [
              -92.0207826,
              34.2448616
            ],
            [
              -92.0208247,
              34.2448618
            ],
            [
              -92.0208255,
              34.2447423
            ],
            [
              -92.0206703,
              34.2447416
            ],
            [
              -92.0206701,
              34.2447822
            ],
            [
              -92.0206506,
              34.2447822
            ],
            [
              -92.0206504,
              34.2448177
            ],
            [
              -92.0206756,
              34.2448178
            ],
            [
              -92.0206747,
              34.2449719
            ],
            [
              -92.0207534,
              34.2449723
            ]
          ]
        ]
      }
    },
    {
      "type": "Feature",
      "properties": {
        "building_id": "building",
        "name": "Building",
        "code": "",
        "map_number": null,
        "osm_id": "way/818591128"
      },
      "geometry": {
        "type": "Polygon",
        "coordinates": [
          [
            [
              -92.0183065,
              34.2444912
            ],
            [
              -92.0183086,
              34.2444202
            ],
            [
              -92.0183354,
              34.2444211
            ],
            [
              -92.0183386,
              34.2443484
            ],
            [
              -92.0180887,
              34.2443466
            ],
            [
              -92.0180909,
              34.2444344
            ],
            [
              -92.018078,
              34.2444344
            ],
            [
              -92.0180791,
              34.2445018
            ],
            [
              -92.0181917,
              34.2445027
            ],
            [
              -92.0181917,
              34.2444903
            ],
            [
              -92.0183065,
              34.2444912
            ]
          ]
        ]
      }
    },
    {
      "type": "Feature",
      "properties": {
        "building_id": "building",
        "name": "Building",
        "code": "",
        "map_number": null,
        "osm_id": "way/818591159"
      },
      "geometry": {
        "type": "Polygon",
        "coordinates": [
          [
            [
              -92.0194142,
              34.2445206
            ],
            [
              -92.0194548,
              34.244399
            ],
            [
              -92.0194548,
              34.2443418
            ],
            [
              -92.0194311,
              34.2443404
            ],
            [
              -92.0194615,
              34.2443068
            ],
            [
              -92.0194666,
              34.2442468
            ],
            [
              -92.0185812,
              34.2442314
            ],
            [
              -92.0185812,
              34.2442649
            ],
            [
              -92.0186335,
              34.2442649
            ],
            [
              -92.0186386,
              34.2444437
            ],
            [
              -92.0187451,
              34.2444479
            ],
            [
              -92.0187468,
              34.244508
            ],
            [
              -92.0194142,
              34.2445206
            ]
          ]
        ]
      }
    },
    {
      "type": "Feature",
      "properties": {
        "building_id": "building",
        "name": "Building",
        "code": "",
        "map_number": null,
        "osm_id": "way/818591160"
      },
      "geometry": {
        "type": "Polygon",
        "coordinates": [
          [
            [
              -92.0204923,
              34.244251
            ],
            [
              -92.0205042,
              34.2445499
            ],
            [
              -92.0205571,
              34.24455
            ],
            [
              -92.0223021,
              34.2445541
            ],
            [
              -92.0223055,
              34.2442859
            ],
            [
              -92.0209875,
              34.2442789
            ],
            [
              -92.0209447,
              34.2442769
            ],
            [
              -92.0206292,
              34.2442621
            ],
            [
              -92.0204923,
              34.244251
            ]
          ]
        ]
      }
    },
    {
      "type": "Feature",
      "properties": {
        "building_id": "building",
        "name": "Building",
        "code": "",
        "map_number": null,
        "osm_id": "way/818591161"
      },
      "geometry": {
        "type": "Polygon",
        "coordinates": [
          [
            [
              -92.0230748,
              34.2441384
            ],
            [
              -92.0230938,
              34.2433405
            ],
            [
              -92.0227398,
              34.2433391
            ],
            [
              -92.0227364,
              34.2437601
            ],
            [
              -92.0226448,
              34.2437573
            ],
            [
              -92.0226483,
              34.2441384
            ],
            [
              -92.0230748,
              34.2441384
            ]
          ]
        ]
      }
    },
    {
      "type": "Feature",
      "properties": {
        "building_id": "building",
        "name": "Building",
        "code": "",
        "map_number": null,
        "osm_id": "way/818591162"
      },
      "geometry": {
        "type": "Polygon",
        "coordinates": [
          [
            [
              -92.0236272,
              34.2437219
            ],
            [
              -92.023637,
              34.2437736
            ],
            [
              -92.0236731,
              34.2438482
            ],
            [
              -92.0236842,
              34.2439148
            ],
            [
              -92.0236231,
              34.2439228
            ],
            [
              -92.0236675,
              34.2439859
            ],
            [
              -92.0237717,
              34.2439572
            ],
            [
              -92.024005,
              34.2439561
            ],
            [
              -92.024005,
              34.243909
            ],
            [
              -92.0239758,
              34.2439056
            ],
            [
              -92.023973,
              34.2438356
            ],
            [
              -92.0238522,
              34.243839
            ],
            [
              -92.0238425,
              34.2437621
            ],
            [
              -92.0239786,
              34.2437632
            ],
            [
              -92.0239619,
              34.2436278
            ],
            [
              -92.0239619,
              34.2435864
            ],
            [
              -92.0236259,
              34.2435945
            ],
            [
              -92.02363,
              34.2436611
            ],
            [
              -92.0235745,
              34.2436645
            ],
            [
              -92.023587,
              34.2437265
            ],
            [
              -92.0236272,
              34.2437219
            ]
          ]
        ]
      }
    },
    {
      "type": "Feature",
      "properties": {
        "building_id": "building",
        "name": "Building",
        "code": "",
        "map_number": null,
        "osm_id": "way/818591163"
      },
      "geometry": {
        "type": "Polygon",
        "coordinates": [
          [
            [
              -92.0239675,
              34.2443326
            ],
            [
              -92.0239494,
              34.2442637
            ],
            [
              -92.0237994,
              34.244281
            ],
            [
              -92.0238217,
              34.2443728
            ],
            [
              -92.0239675,
              34.2443326
            ]
          ]
        ]
      }
    },
    {
      "type": "Feature",
      "properties": {
        "building_id": "building",
        "name": "Building",
        "code": "",
        "map_number": null,
        "osm_id": "way/818591164"
      },
      "geometry": {
        "type": "Polygon",
        "coordinates": [
          [
            [
              -92.0231372,
              34.2424446
            ],
            [
              -92.023152,
              34.2417798
            ],
            [
              -92.0225824,
              34.2417757
            ],
            [
              -92.0225815,
              34.2418122
            ],
            [
              -92.0225658,
              34.2424145
            ],
            [
              -92.0221696,
              34.24242
            ],
            [
              -92.022163,
              34.2425237
            ],
            [
              -92.0231372,
              34.2425347
            ],
            [
              -92.0231372,
              34.2424446
            ]
          ]
        ]
      }
    },
    {
      "type": "Feature",
      "properties": {
        "building_id": "building",
        "name": "Building",
        "code": "",
        "map_number": null,
        "osm_id": "way/818591169"
      },
      "geometry": {
        "type": "Polygon",
        "coordinates": [
          [
            [
              -92.0201624,
              34.2435347
            ],
            [
              -92.0205488,
              34.2434283
            ],
            [
              -92.0205428,
              34.2432868
            ],
            [
              -92.020102,
              34.2432835
            ],
            [
              -92.0201,
              34.2435131
            ],
            [
              -92.0201624,
              34.2435131
            ],
            [
              -92.0201624,
              34.2435347
            ]
          ]
        ]
      }
    },
    {
      "type": "Feature",
      "properties": {
        "building_id": "building",
        "name": "Building",
        "code": "",
        "map_number": null,
        "osm_id": "way/818591170"
      },
      "geometry": {
        "type": "Polygon",
        "coordinates": [
          [
            [
              -92.0216006,
              34.2429507
            ],
            [
              -92.0216118,
              34.2425913
            ],
            [
              -92.02152,
              34.2425902
            ],
            [
              -92.0213628,
              34.2425882
            ],
            [
              -92.0213442,
              34.2429446
            ],
            [
              -92.0216006,
              34.2429507
            ]
          ]
        ]
      }
    },
    {
      "type": "Feature",
      "properties": {
        "building_id": "building",
        "name": "Building",
        "code": "",
        "map_number": null,
        "osm_id": "way/818591171"
      },
      "geometry": {
        "type": "Polygon",
        "coordinates": [
          [
            [
              -92.0215393,
              34.2432119
            ],
            [
              -92.0215523,
              34.2429953
            ],
            [
              -92.0213479,
              34.2429922
            ],
            [
              -92.0213349,
              34.2432749
            ],
            [
              -92.0213925,
              34.2432749
            ],
            [
              -92.0214835,
              34.2432549
            ],
            [
              -92.0215393,
              34.2432119
            ]
          ]
        ]
      }
    },
    {
      "type": "Feature",
      "properties": {
        "building_id": "building",
        "name": "Building",
        "code": "",
        "map_number": null,
        "osm_id": "way/818591172"
      },
      "geometry": {
        "type": "Polygon",
        "coordinates": [
          [
            [
              -92.0217979,
              34.2441907
            ],
            [
              -92.0217967,
              34.2440408
            ],
            [
              -92.021671,
              34.2440325
            ],
            [
              -92.0216694,
              34.2439533
            ],
            [
              -92.0217061,
              34.2434916
            ],
            [
              -92.0216282,
              34.2435302
            ],
            [
              -92.0216029,
              34.2440338
            ],
            [
              -92.0216005,
              34.2441882
            ],
            [
              -92.0217979,
              34.2441907
            ]
          ]
        ]
      }
    },
    {
      "type": "Feature",
      "properties": {
        "building_id": "building",
        "name": "Building",
        "code": "",
        "map_number": null,
        "osm_id": "way/818591173"
      },
      "geometry": {
        "type": "Polygon",
        "coordinates": [
          [
            [
              -92.0227008,
              34.2447039
            ],
            [
              -92.0226816,
              34.2446689
            ],
            [
              -92.0226769,
              34.2446604
            ],
            [
              -92.02264,
              34.2445933
            ],
            [
              -92.0223479,
              34.244708
            ],
            [
              -92.021995,
              34.2447039
            ],
            [
              -92.021995,
              34.2447502
            ],
            [
              -92.0219001,
              34.2447522
            ],
            [
              -92.0218976,
              34.2449172
            ],
            [
              -92.02172,
              34.2449172
            ],
            [
              -92.02172,
              34.2447381
            ],
            [
              -92.0216543,
              34.2447361
            ],
            [
              -92.021406,
              34.2447361
            ],
            [
              -92.0213452,
              34.2447321
            ],
            [
              -92.0213452,
              34.2448106
            ],
            [
              -92.0214109,
              34.2448106
            ],
            [
              -92.0214036,
              34.2449031
            ],
            [
              -92.0211431,
              34.2448971
            ],
            [
              -92.0211456,
              34.2447341
            ],
            [
              -92.0209387,
              34.2447301
            ],
            [
              -92.0209265,
              34.2451103
            ],
            [
              -92.0204471,
              34.2451043
            ],
            [
              -92.0204495,
              34.2447623
            ],
            [
              -92.0203667,
              34.2447603
            ],
            [
              -92.0203643,
              34.2446778
            ],
            [
              -92.0189843,
              34.2446516
            ],
            [
              -92.0189843,
              34.2447965
            ],
            [
              -92.0191011,
              34.2449856
            ],
            [
              -92.0194346,
              34.2449937
            ],
            [
              -92.0195782,
              34.2449534
            ],
            [
              -92.0195684,
              34.2453377
            ],
            [
              -92.0213232,
              34.2453598
            ],
            [
              -92.021333,
              34.2449896
            ],
            [
              -92.0217589,
              34.2449997
            ],
            [
              -92.0217565,
              34.2453276
            ],
            [
              -92.0217836,
              34.245328
            ],
            [
              -92.0218928,
              34.2453296
            ],
            [
              -92.0218928,
              34.2453779
            ],
            [
              -92.0221702,
              34.2453759
            ],
            [
              -92.0221848,
              34.2452612
            ],
            [
              -92.0220996,
              34.2452612
            ],
            [
              -92.0221118,
              34.2451647
            ],
            [
              -92.0221556,
              34.2451647
            ],
            [
              -92.0221605,
              34.2450902
            ],
            [
              -92.022107,
              34.2450902
            ],
            [
              -92.0221094,
              34.2450077
            ],
            [
              -92.02227,
              34.2449755
            ],
            [
              -92.0224355,
              34.2450017
            ],
            [
              -92.0225329,
              34.2449876
            ],
            [
              -92.022567,
              34.2448065
            ],
            [
              -92.0227252,
              34.2447402
            ],
            [
              -92.0227008,
              34.2447039
            ]
          ]
        ]
      }
    },
    {
      "type": "Feature",
      "properties": {
        "building_id": "hazzard-building-military-science",
        "name": "Hazzard Building/Military Science",
        "code": "",
        "map_number": null,
        "osm_id": "way/818600619"
      },
      "geometry": {
        "type": "Polygon",
        "coordinates": [
          [
            [
              -92.0181611,
              34.2432474
            ],
            [
              -92.0181927,
              34.2428383
            ],
            [
              -92.0180947,
              34.2428369
            ],
            [
              -92.0181015,
              34.2427071
            ],
            [
              -92.0177164,
              34.2426847
            ],
            [
              -92.0177164,
              34.2427057
            ],
            [
              -92.0176573,
              34.2427015
            ],
            [
              -92.0176641,
              34.2426401
            ],
            [
              -92.0173905,
              34.2426247
            ],
            [
              -92.0173871,
              34.2426568
            ],
            [
              -92.0173361,
              34.242655
            ],
            [
              -92.0173095,
              34.2431055
            ],
            [
              -92.0176403,
              34.2431212
            ],
            [
              -92.0176335,
              34.2432227
            ],
            [
              -92.0181611,
              34.2432474
            ]
          ]
        ]
      }
    },
    {
      "type": "Feature",
      "properties": {
        "building_id": "building",
        "name": "Building",
        "code": "",
        "map_number": null,
        "osm_id": "way/818600620"
      },
      "geometry": {
        "type": "Polygon",
        "coordinates": [
          [
            [
              -92.0172622,
              34.2430101
            ],
            [
              -92.017285,
              34.2427026
            ],
            [
              -92.0171129,
              34.2426943
            ],
            [
              -92.0170927,
              34.2430017
            ],
            [
              -92.0172622,
              34.2430101
            ]
          ]
        ]
      }
    },
    {
      "type": "Feature",
      "properties": {
        "building_id": "health-physical-education-and-recreation-hper-building",
        "name": "Health, Physical Education and Recreation (HPER) Building",
        "code": "",
        "map_number": null,
        "osm_id": "way/818600621"
      },
      "geometry": {
        "type": "Polygon",
        "coordinates": [
          [
            [
              -92.0242496,
              34.2462121
            ],
            [
              -92.0245137,
              34.2464353
            ],
            [
              -92.0245783,
              34.2463965
            ],
            [
              -92.0247133,
              34.2465129
            ],
            [
              -92.0247368,
              34.246496
            ],
            [
              -92.0248336,
              34.2465008
            ],
            [
              -92.0248542,
              34.2465178
            ],
            [
              -92.0249036,
              34.246476
            ],
            [
              -92.0249275,
              34.246496
            ],
            [
              -92.0250287,
              34.2464159
            ],
            [
              -92.0250097,
              34.2463971
            ],
            [
              -92.0250332,
              34.2463674
            ],
            [
              -92.025039,
              34.2463431
            ],
            [
              -92.0250273,
              34.2463189
            ],
            [
              -92.0248982,
              34.2462145
            ],
            [
              -92.0249334,
              34.2461903
            ],
            [
              -92.0249686,
              34.2462194
            ],
            [
              -92.0250009,
              34.2462048
            ],
            [
              -92.0250743,
              34.2462703
            ],
            [
              -92.025174,
              34.2461903
            ],
            [
              -92.024411,
              34.2455401
            ],
            [
              -92.0242643,
              34.245659
            ],
            [
              -92.024232,
              34.2456396
            ],
            [
              -92.0237947,
              34.2456299
            ],
            [
              -92.0237507,
              34.245642
            ],
            [
              -92.0237184,
              34.2456542
            ],
            [
              -92.0236891,
              34.2456736
            ],
            [
              -92.0236715,
              34.2457027
            ],
            [
              -92.0236744,
              34.2460738
            ],
            [
              -92.0236744,
              34.2461102
            ],
            [
              -92.0236979,
              34.2461612
            ],
            [
              -92.0237302,
              34.2461951
            ],
            [
              -92.0237859,
              34.2462048
            ],
            [
              -92.0242496,
              34.2462121
            ]
          ]
        ]
      }
    },
    {
      "type": "Feature",
      "properties": {
        "building_id": "building",
        "name": "Building",
        "code": "",
        "map_number": null,
        "osm_id": "way/818600626"
      },
      "geometry": {
        "type": "Polygon",
        "coordinates": [
          [
            [
              -92.0253193,
              34.2461613
            ],
            [
              -92.025356,
              34.2461689
            ],
            [
              -92.0254111,
              34.2461294
            ],
            [
              -92.0254001,
              34.246096
            ],
            [
              -92.0254313,
              34.2460672
            ],
            [
              -92.0246324,
              34.2453704
            ],
            [
              -92.0246012,
              34.2453947
            ],
            [
              -92.0245553,
              34.2453947
            ],
            [
              -92.0243882,
              34.2452565
            ],
            [
              -92.0243882,
              34.2452186
            ],
            [
              -92.0244084,
              34.2451973
            ],
            [
              -92.0239437,
              34.2447996
            ],
            [
              -92.0236223,
              34.2450592
            ],
            [
              -92.0240815,
              34.245422
            ],
            [
              -92.02412,
              34.2453977
            ],
            [
              -92.0242871,
              34.2452656
            ],
            [
              -92.0245461,
              34.2455131
            ],
            [
              -92.0245094,
              34.2455404
            ],
            [
              -92.025277,
              34.2461917
            ],
            [
              -92.0253193,
              34.2461613
            ]
          ]
        ]
      }
    },
    {
      "type": "Feature",
      "properties": {
        "building_id": "facilities-management",
        "name": "Facilities Management",
        "code": "",
        "map_number": null,
        "osm_id": "way/818600627"
      },
      "geometry": {
        "type": "Polygon",
        "coordinates": [
          [
            [
              -92.0230988,
              34.2473088
            ],
            [
              -92.023101,
              34.2471252
            ],
            [
              -92.0226231,
              34.2471212
            ],
            [
              -92.0226237,
              34.2470692
            ],
            [
              -92.0224228,
              34.2470675
            ],
            [
              -92.0224192,
              34.2473541
            ],
            [
              -92.0226315,
              34.2473559
            ],
            [
              -92.0226321,
              34.2473049
            ],
            [
              -92.0230988,
              34.2473088
            ]
          ]
        ]
      }
    },
    {
      "type": "Feature",
      "properties": {
        "building_id": "building",
        "name": "Building",
        "code": "",
        "map_number": null,
        "osm_id": "way/818600628"
      },
      "geometry": {
        "type": "Polygon",
        "coordinates": [
          [
            [
              -92.0229294,
              34.2477352
            ],
            [
              -92.0229342,
              34.2474284
            ],
            [
              -92.0227875,
              34.2474269
            ],
            [
              -92.0227828,
              34.2477336
            ],
            [
              -92.0229294,
              34.2477352
            ]
          ]
        ]
      }
    },
    {
      "type": "Feature",
      "properties": {
        "building_id": "building",
        "name": "Building",
        "code": "",
        "map_number": null,
        "osm_id": "way/818600629"
      },
      "geometry": {
        "type": "Polygon",
        "coordinates": [
          [
            [
              -92.0226257,
              34.2477437
            ],
            [
              -92.022633,
              34.2474177
            ],
            [
              -92.0224564,
              34.247415
            ],
            [
              -92.0224493,
              34.247741
            ],
            [
              -92.0226257,
              34.2477437
            ]
          ]
        ]
      }
    },
    {
      "type": "Feature",
      "properties": {
        "building_id": "building",
        "name": "Building",
        "code": "",
        "map_number": null,
        "osm_id": "way/818600632"
      },
      "geometry": {
        "type": "Polygon",
        "coordinates": [
          [
            [
              -92.0232952,
              34.2473423
            ],
            [
              -92.0233107,
              34.2470484
            ],
            [
              -92.0232303,
              34.2469776
            ],
            [
              -92.0223219,
              34.2469776
            ],
            [
              -92.0223297,
              34.2477564
            ],
            [
              -92.0232199,
              34.2477671
            ],
            [
              -92.0232277,
              34.2474088
            ],
            [
              -92.0232952,
              34.2473423
            ]
          ]
        ]
      }
    },
    {
      "type": "Feature",
      "properties": {
        "building_id": "delta-housing-complex",
        "name": "Delta Housing Complex",
        "code": "",
        "map_number": null,
        "osm_id": "way/818600633"
      },
      "geometry": {
        "type": "Polygon",
        "coordinates": [
          [
            [
              -92.022379,
              34.2485562
            ],
            [
              -92.0223815,
              34.2483774
            ],
            [
              -92.0220116,
              34.2483738
            ],
            [
              -92.022012,
              34.2483436
            ],
            [
              -92.022102,
              34.2483444
            ],
            [
              -92.0221046,
              34.2481612
            ],
            [
              -92.0220197,
              34.2481604
            ],
            [
              -92.0220202,
              34.2481271
            ],
            [
              -92.0223818,
              34.2481305
            ],
            [
              -92.022384,
              34.2479695
            ],
            [
              -92.0215467,
              34.2479616
            ],
            [
              -92.0215444,
              34.2481309
            ],
            [
              -92.0219145,
              34.2481344
            ],
            [
              -92.0219139,
              34.2481724
            ],
            [
              -92.0217587,
              34.248171
            ],
            [
              -92.0217568,
              34.2483014
            ],
            [
              -92.0217057,
              34.248301
            ],
            [
              -92.0217049,
              34.2483585
            ],
            [
              -92.0219141,
              34.2483605
            ],
            [
              -92.0219138,
              34.248378
            ],
            [
              -92.0215428,
              34.2483743
            ],
            [
              -92.0215403,
              34.248548
            ],
            [
              -92.022379,
              34.2485562
            ]
          ]
        ]
      }
    },
    {
      "type": "Feature",
      "properties": {
        "building_id": "building",
        "name": "Building",
        "code": "",
        "map_number": null,
        "osm_id": "way/818600638"
      },
      "geometry": {
        "type": "Polygon",
        "coordinates": [
          [
            [
              -92.0232267,
              34.2495382
            ],
            [
              -92.0232382,
              34.2488415
            ],
            [
              -92.0231832,
              34.2488391
            ],
            [
              -92.0231832,
              34.2487889
            ],
            [
              -92.02263,
              34.2487889
            ],
            [
              -92.02263,
              34.2488415
            ],
            [
              -92.0224475,
              34.2488391
            ],
            [
              -92.0224504,
              34.2495286
            ],
            [
              -92.0232267,
              34.2495382
            ]
          ]
        ]
      }
    },
    {
      "type": "Feature",
      "properties": {
        "building_id": "building",
        "name": "Building",
        "code": "",
        "map_number": null,
        "osm_id": "way/987938527"
      },
      "geometry": {
        "type": "Polygon",
        "coordinates": [
          [
            [
              -92.0234815,
              34.2434967
            ],
            [
              -92.0234855,
              34.2432463
            ],
            [
              -92.0233571,
              34.2432449
            ],
            [
              -92.0233531,
              34.2434953
            ],
            [
              -92.0234815,
              34.2434967
            ]
          ]
        ]
      }
    },
    {
      "type": "Feature",
      "properties": {
        "building_id": "building",
        "name": "Building",
        "code": "",
        "map_number": null,
        "osm_id": "way/987938528"
      },
      "geometry": {
        "type": "Polygon",
        "coordinates": [
          [
            [
              -92.0234927,
              34.2432208
            ],
            [
              -92.0234969,
              34.2429409
            ],
            [
              -92.0233796,
              34.2429397
            ],
            [
              -92.0233755,
              34.2432196
            ],
            [
              -92.0234927,
              34.2432208
            ]
          ]
        ]
      }
    },
    {
      "type": "Feature",
      "properties": {
        "building_id": "building",
        "name": "Building",
        "code": "",
        "map_number": null,
        "osm_id": "way/1073352262"
      },
      "geometry": {
        "type": "Polygon",
        "coordinates": [
          [
            [
              -92.0223988,
              34.248352
            ],
            [
              -92.0224016,
              34.2481904
            ],
            [
              -92.0222866,
              34.248189
            ],
            [
              -92.0222838,
              34.2483507
            ],
            [
              -92.0223988,
              34.248352
            ]
          ]
        ]
      }
    },
    {
      "type": "Feature",
      "properties": {
        "building_id": "building",
        "name": "Building",
        "code": "",
        "map_number": null,
        "osm_id": "way/1073352267"
      },
      "geometry": {
        "type": "Polygon",
        "coordinates": [
          [
            [
              -92.0226034,
              34.2485607
            ],
            [
              -92.0226038,
              34.248517
            ],
            [
              -92.0226697,
              34.2485174
            ],
            [
              -92.0226719,
              34.2482435
            ],
            [
              -92.022635,
              34.2482433
            ],
            [
              -92.0226366,
              34.2480548
            ],
            [
              -92.0225697,
              34.2480544
            ],
            [
              -92.0225701,
              34.2480041
            ],
            [
              -92.0224546,
              34.2480034
            ],
            [
              -92.0224502,
              34.2485599
            ],
            [
              -92.0226034,
              34.2485607
            ]
          ]
        ]
      }
    },
    {
      "type": "Feature",
      "properties": {
        "building_id": "building",
        "name": "Building",
        "code": "",
        "map_number": null,
        "osm_id": "way/1073352268"
      },
      "geometry": {
        "type": "Polygon",
        "coordinates": [
          [
            [
              -92.0226886,
              34.2486129
            ],
            [
              -92.0228868,
              34.2486135
            ],
            [
              -92.0228877,
              34.2484337
            ],
            [
              -92.0228277,
              34.2484335
            ],
            [
              -92.0228289,
              34.2481663
            ],
            [
              -92.0228893,
              34.2481665
            ],
            [
              -92.0228907,
              34.2478783
            ],
            [
              -92.0226921,
              34.2478777
            ],
            [
              -92.0226886,
              34.2486129
            ]
          ]
        ]
      }
    },
    {
      "type": "Feature",
      "properties": {
        "building_id": "building",
        "name": "Building",
        "code": "",
        "map_number": null,
        "osm_id": "way/1073352269"
      },
      "geometry": {
        "type": "Polygon",
        "coordinates": [
          [
            [
              -92.0230719,
              34.2485416
            ],
            [
              -92.0231826,
              34.2485434
            ],
            [
              -92.0231866,
              34.2483709
            ],
            [
              -92.023076,
              34.2483691
            ],
            [
              -92.0230719,
              34.2485416
            ]
          ]
        ]
      }
    },
    {
      "type": "Feature",
      "properties": {
        "building_id": "building",
        "name": "Building",
        "code": "",
        "map_number": null,
        "osm_id": "way/1073352275"
      },
      "geometry": {
        "type": "Polygon",
        "coordinates": [
          [
            [
              -92.0235922,
              34.2471622
            ],
            [
              -92.0245446,
              34.2471703
            ],
            [
              -92.0245488,
              34.2468384
            ],
            [
              -92.0244757,
              34.2468378
            ],
            [
              -92.0244764,
              34.2467853
            ],
            [
              -92.0239656,
              34.2467807
            ],
            [
              -92.0239673,
              34.2466511
            ],
            [
              -92.0242941,
              34.246654
            ],
            [
              -92.0242951,
              34.2465815
            ],
            [
              -92.0243845,
              34.2465823
            ],
            [
              -92.0243862,
              34.2464566
            ],
            [
              -92.0242976,
              34.2464558
            ],
            [
              -92.024299,
              34.2463496
            ],
            [
              -92.024236,
              34.2462931
            ],
            [
              -92.0239816,
              34.2462923
            ],
            [
              -92.0239809,
              34.2464569
            ],
            [
              -92.0236781,
              34.246456
            ],
            [
              -92.0235158,
              34.2466334
            ],
            [
              -92.0234809,
              34.2470957
            ],
            [
              -92.0235922,
              34.2471622
            ]
          ]
        ]
      }
    },
    {
      "type": "Feature",
      "properties": {
        "building_id": "johnny-b-johnson-housing-complex",
        "name": "Johnny B. Johnson Housing Complex",
        "code": "",
        "map_number": null,
        "osm_id": "way/1073554038"
      },
      "geometry": {
        "type": "Polygon",
        "coordinates": [
          [
            [
              -92.0239405,
              34.2476586
            ],
            [
              -92.0240176,
              34.247594
            ],
            [
              -92.0240433,
              34.247615
            ],
            [
              -92.024097,
              34.2475699
            ],
            [
              -92.0240733,
              34.2475505
            ],
            [
              -92.0241423,
              34.2474927
            ],
            [
              -92.0240403,
              34.2474097
            ],
            [
              -92.0241759,
              34.2472959
            ],
            [
              -92.0241066,
              34.2472395
            ],
            [
              -92.0240714,
              34.247269
            ],
            [
              -92.0240083,
              34.2472176
            ],
            [
              -92.0239171,
              34.2472941
            ],
            [
              -92.0238843,
              34.2472674
            ],
            [
              -92.0238144,
              34.2473261
            ],
            [
              -92.0237678,
              34.2472881
            ],
            [
              -92.0237079,
              34.2473383
            ],
            [
              -92.0237646,
              34.2473845
            ],
            [
              -92.0236909,
              34.2474463
            ],
            [
              -92.02371,
              34.2474619
            ],
            [
              -92.0236089,
              34.2475467
            ],
            [
              -92.0237374,
              34.2476514
            ],
            [
              -92.0238332,
              34.2475711
            ],
            [
              -92.0239405,
              34.2476586
            ]
          ]
        ]
      }
    },
    {
      "type": "Feature",
      "properties": {
        "building_id": "building",
        "name": "Building",
        "code": "",
        "map_number": null,
        "osm_id": "way/1073554039"
      },
      "geometry": {
        "type": "Polygon",
        "coordinates": [
          [
            [
              -92.023854,
              34.2480032
            ],
            [
              -92.023952,
              34.247925
            ],
            [
              -92.0237117,
              34.2477193
            ],
            [
              -92.0236137,
              34.2477976
            ],
            [
              -92.023854,
              34.2480032
            ]
          ]
        ]
      }
    },
    {
      "type": "Feature",
      "properties": {
        "building_id": "building",
        "name": "Building",
        "code": "",
        "map_number": null,
        "osm_id": "way/1073554040"
      },
      "geometry": {
        "type": "Polygon",
        "coordinates": [
          [
            [
              -92.0244717,
              34.2475072
            ],
            [
              -92.0245697,
              34.247429
            ],
            [
              -92.0243294,
              34.2472233
            ],
            [
              -92.0242313,
              34.2473016
            ],
            [
              -92.0244717,
              34.2475072
            ]
          ]
        ]
      }
    },
    {
      "type": "Feature",
      "properties": {
        "building_id": "building",
        "name": "Building",
        "code": "",
        "map_number": null,
        "osm_id": "way/1073554041"
      },
      "geometry": {
        "type": "Polygon",
        "coordinates": [
          [
            [
              -92.0246772,
              34.2480535
            ],
            [
              -92.0247752,
              34.2479752
            ],
            [
              -92.0245348,
              34.2477696
            ],
            [
              -92.0244368,
              34.2478479
            ],
            [
              -92.0246772,
              34.2480535
            ]
          ]
        ]
      }
    },
    {
      "type": "Feature",
      "properties": {
        "building_id": "building",
        "name": "Building",
        "code": "",
        "map_number": null,
        "osm_id": "way/1073554042"
      },
      "geometry": {
        "type": "Polygon",
        "coordinates": [
          [
            [
              -92.0244998,
              34.2482079
            ],
            [
              -92.0245977,
              34.2481296
            ],
            [
              -92.0243574,
              34.247924
            ],
            [
              -92.0242594,
              34.2480023
            ],
            [
              -92.0244998,
              34.2482079
            ]
          ]
        ]
      }
    },
    {
      "type": "Feature",
      "properties": {
        "building_id": "building",
        "name": "Building",
        "code": "",
        "map_number": null,
        "osm_id": "way/1073554043"
      },
      "geometry": {
        "type": "Polygon",
        "coordinates": [
          [
            [
              -92.0253777,
              34.2477427
            ],
            [
              -92.0254757,
              34.2476644
            ],
            [
              -92.0252353,
              34.2474588
            ],
            [
              -92.0251373,
              34.2475371
            ],
            [
              -92.0253777,
              34.2477427
            ]
          ]
        ]
      }
    },
    {
      "type": "Feature",
      "properties": {
        "building_id": "building",
        "name": "Building",
        "code": "",
        "map_number": null,
        "osm_id": "way/1073554044"
      },
      "geometry": {
        "type": "Polygon",
        "coordinates": [
          [
            [
              -92.0240409,
              34.2480778
            ],
            [
              -92.0242951,
              34.2478748
            ],
            [
              -92.0242044,
              34.2477973
            ],
            [
              -92.0239503,
              34.2480003
            ],
            [
              -92.0240409,
              34.2480778
            ]
          ]
        ]
      }
    },
    {
      "type": "Feature",
      "properties": {
        "building_id": "building",
        "name": "Building",
        "code": "",
        "map_number": null,
        "osm_id": "way/1073554045"
      },
      "geometry": {
        "type": "Polygon",
        "coordinates": [
          [
            [
              -92.0244005,
              34.2477951
            ],
            [
              -92.0246546,
              34.2475921
            ],
            [
              -92.024564,
              34.2475145
            ],
            [
              -92.0243099,
              34.2477176
            ],
            [
              -92.0244005,
              34.2477951
            ]
          ]
        ]
      }
    },
    {
      "type": "Feature",
      "properties": {
        "building_id": "building",
        "name": "Building",
        "code": "",
        "map_number": null,
        "osm_id": "way/1073554046"
      },
      "geometry": {
        "type": "Polygon",
        "coordinates": [
          [
            [
              -92.0248675,
              34.2478028
            ],
            [
              -92.0251216,
              34.2475998
            ],
            [
              -92.025031,
              34.2475223
            ],
            [
              -92.0247769,
              34.2477253
            ],
            [
              -92.0248675,
              34.2478028
            ]
          ]
        ]
      }
    },
    {
      "type": "Feature",
      "properties": {
        "building_id": "building",
        "name": "Building",
        "code": "",
        "map_number": null,
        "osm_id": "way/1073554047"
      },
      "geometry": {
        "type": "Polygon",
        "coordinates": [
          [
            [
              -92.0251337,
              34.2480267
            ],
            [
              -92.0253878,
              34.2478237
            ],
            [
              -92.0252971,
              34.2477462
            ],
            [
              -92.0250431,
              34.2479492
            ],
            [
              -92.0251337,
              34.2480267
            ]
          ]
        ]
      }
    },
    {
      "type": "Feature",
      "properties": {
        "building_id": "building",
        "name": "Building",
        "code": "",
        "map_number": null,
        "osm_id": "way/1073554048"
      },
      "geometry": {
        "type": "Polygon",
        "coordinates": [
          [
            [
              -92.021627,
              34.2450488
            ],
            [
              -92.0214229,
              34.2450423
            ],
            [
              -92.021419,
              34.2451259
            ],
            [
              -92.0214911,
              34.2451282
            ],
            [
              -92.0214899,
              34.2451543
            ],
            [
              -92.0214681,
              34.2451536
            ],
            [
              -92.021463,
              34.2452636
            ],
            [
              -92.0215851,
              34.2452674
            ],
            [
              -92.0215918,
              34.2451246
            ],
            [
              -92.0216234,
              34.2451256
            ],
            [
              -92.021627,
              34.2450488
            ]
          ]
        ]
      }
    },
    {
      "type": "Feature",
      "properties": {
        "building_id": "caine-gilleland-hall",
        "name": "Caine-Gillelean Hall",
        "code": "CGH",
        "map_number": 32,
        "osm_id": null
      },
      "geometry": {
        "type": "Polygon",
        "coordinates": [
          [
            [
              -92.02118,
              34.241513
            ],
            [
              -92.021324,
              34.24151
            ],
            [
              -92.021324,
              34.241487
            ],
            [
              -92.021413,
              34.241484
            ],
            [
              -92.02142,
              34.241258
            ],
            [
              -92.020664,
              34.241255
            ],
            [
              -92.020657,
              34.241315
            ],
            [
              -92.020613,
              34.241318
            ],
            [
              -92.020613,
              34.241405
            ],
            [
              -92.020654,
              34.2414
            ],
            [
              -92.020654,
              34.24147
            ],
            [
              -92.020739,
              34.24147
            ],
            [
              -92.020743,
              34.241498
            ],
            [
              -92.020883,
              34.241493
            ],
            [
              -92.020883,
              34.241467
            ],
            [
              -92.020955,
              34.241467
            ],
            [
              -92.020958,
              34.241498
            ],
            [
              -92.021098,
              34.241496
            ],
            [
              -92.021098,
              34.241473
            ],
            [
              -92.021177,
              34.241473
            ],
            [
              -92.02118,
              34.241513
            ]
          ]
        ]
      }
    },
    {
      "type": "Feature",
      "properties": {
        "building_id": "dawson-hicks-hall",
        "name": "Dawson-Hicks Hall",
        "code": "DHH",
        "map_number": 31,
        "osm_id": null
      },
      "geometry": {
        "type": "Polygon",
        "coordinates": [
          [
            [
              -92.020464,
              34.241471
            ],
            [
              -92.020558,
              34.241474
            ],
            [
              -92.020558,
              34.241409
            ],
            [
              -92.020612,
              34.241409
            ],
            [
              -92.020612,
              34.241316
            ],
            [
              -92.020554,
              34.241313
            ],
            [
              -92.020554,
              34.241235
            ],
            [
              -92.019789,
              34.241226
            ],
            [
              -92.019796,
              34.241456
            ],
            [
              -92.019872,
              34.241453
            ],
            [
              -92.019872,
              34.241477
            ],
            [
              -92.020023,
              34.241477
            ],
            [
              -92.020023,
              34.241459
            ],
            [
              -92.020092,
              34.241459
            ],
            [
              -92.020092,
              34.241501
            ],
            [
              -92.020233,
              34.241501
            ],
            [
              -92.020236,
              34.241462
            ],
            [
              -92.020294,
              34.241465
            ],
            [
              -92.020294,
              34.241477
            ],
            [
              -92.020294,
              34.241477
            ],
            [
              -92.020464,
              34.241471
            ]
          ]
        ]
      }
    },
    {
      "type": "Feature",
      "properties": {
        "building_id": "corbin-hall",
        "name": "Corbin Hall",
        "code": "CBH",
        "map_number": 36,
        "osm_id": null
      },
      "geometry": {
        "type": "Polygon",
        "coordinates": [
          [
            [
              -92.020735,
              34.240785
            ],
            [
              -92.021496,
              34.240797
            ],
            [
              -92.02149,
              34.240608
            ],
            [
              -92.020413,
              34.240594
            ],
            [
              -92.020413,
              34.240776
            ],
            [
              -92.020413,
              34.240776
            ],
            [
              -92.020413,
              34.240776
            ],
            [
              -92.020735,
              34.240785
            ]
          ]
        ]
      }
    },
    {
      "type": "Feature",
      "properties": {
        "building_id": "rust-technology-building",
        "name": "Rust Technology Building",
        "code": "RTB",
        "map_number": 37,
        "osm_id": null
      },
      "geometry": {
        "type": "Polygon",
        "coordinates": [
          [
            [
              -92.02273,
              34.24106
            ],
            [
              -92.022733,
              34.240844
            ],
            [
              -92.022767,
              34.240849
            ],
            [
              -92.022764,
              34.240751
            ],
            [
              -92.023123,
              34.240748
            ],
            [
              -92.023135,
              34.240559
            ],
            [
              -92.022712,
              34.240549
            ],
            [
              -92.022712,
              34.240632
            ],
            [
              -92.022614,
              34.240637
            ],
            [
              -92.022608,
              34.240562
            ],
            [
              -92.022499,
              34.240559
            ],
            [
              -92.022499,
              34.240539
            ],
            [
              -92.022444,
              34.240539
            ],
            [
              -92.022444,
              34.240562
            ],
            [
              -92.022398,
              34.240562
            ],
            [
              -92.022395,
              34.240632
            ],
            [
              -92.022228,
              34.240627
            ],
            [
              -92.022224,
              34.240557
            ],
            [
              -92.021847,
              34.240544
            ],
            [
              -92.021856,
              34.240721
            ],
            [
              -92.022118,
              34.240731
            ],
            [
              -92.022121,
              34.240738
            ],
            [
              -92.02213,
              34.240746
            ],
            [
              -92.022145,
              34.240758
            ],
            [
              -92.022161,
              34.240766
            ],
            [
              -92.022164,
              34.240824
            ],
            [
              -92.022194,
              34.240831
            ],
            [
              -92.022194,
              34.240924
            ],
            [
              -92.022416,
              34.240927
            ],
            [
              -92.022422,
              34.240824
            ],
            [
              -92.022505,
              34.240834
            ],
            [
              -92.022499,
              34.240935
            ],
            [
              -92.022389,
              34.240945
            ],
            [
              -92.022395,
              34.24099
            ],
            [
              -92.022502,
              34.240995
            ],
            [
              -92.022508,
              34.24105
            ],
            [
              -92.022508,
              34.24105
            ],
            [
              -92.022508,
              34.24105
            ],
            [
              -92.02273,
              34.24106
            ]
          ]
        ]
      }
    },
    {
      "type": "Feature",
      "properties": {
        "building_id": "parker-1890-complex",
        "name": "S.J. Parker 1890 Extension Complex",
        "code": 1890,
        "map_number": 5,
        "osm_id": null
      },
      "geometry": {
        "type": "Polygon",
        "coordinates": [
          [
            [
              -92.02359,
              34.251638
            ],
            [
              -92.023593,
              34.251785
            ],
            [
              -92.023659,
              34.251794
            ],
            [
              -92.023769,
              34.25187
            ],
            [
              -92.023792,
              34.251838
            ],
            [
              -92.023838,
              34.251835
            ],
            [
              -92.02385,
              34.251874
            ],
            [
              -92.023898,
              34.251873
            ],
            [
              -92.023894,
              34.251839
            ],
            [
              -92.023912,
              34.251838
            ],
            [
              -92.023913,
              34.251849
            ],
            [
              -92.023917,
              34.251853
            ],
            [
              -92.023925,
              34.251852
            ],
            [
              -92.02393,
              34.251872
            ],
            [
              -92.023969,
              34.251872
            ],
            [
              -92.023972,
              34.251854
            ],
            [
              -92.023989,
              34.251853
            ],
            [
              -92.023989,
              34.2518
            ],
            [
              -92.024021,
              34.251801
            ],
            [
              -92.024023,
              34.251808
            ],
            [
              -92.024029,
              34.251814
            ],
            [
              -92.024034,
              34.251817
            ],
            [
              -92.024059,
              34.251815
            ],
            [
              -92.024067,
              34.251815
            ],
            [
              -92.024065,
              34.251757
            ],
            [
              -92.023991,
              34.251762
            ],
            [
              -92.023988,
              34.251689
            ],
            [
              -92.024028,
              34.251684
            ],
            [
              -92.02403,
              34.25164
            ],
            [
              -92.024103,
              34.251634
            ],
            [
              -92.024105,
              34.251578
            ],
            [
              -92.024075,
              34.251578
            ],
            [
              -92.024071,
              34.251531
            ],
            [
              -92.024028,
              34.251529
            ],
            [
              -92.02403,
              34.251501
            ],
            [
              -92.024103,
              34.251501
            ],
            [
              -92.024105,
              34.251541
            ],
            [
              -92.024146,
              34.251539
            ],
            [
              -92.024149,
              34.251496
            ],
            [
              -92.024291,
              34.251503
            ],
            [
              -92.024291,
              34.251406
            ],
            [
              -92.024035,
              34.251402
            ],
            [
              -92.02403,
              34.251382
            ],
            [
              -92.024116,
              34.251383
            ],
            [
              -92.024115,
              34.25139
            ],
            [
              -92.024174,
              34.251389
            ],
            [
              -92.024176,
              34.25128
            ],
            [
              -92.024031,
              34.25129
            ],
            [
              -92.024028,
              34.251274
            ],
            [
              -92.024069,
              34.251271
            ],
            [
              -92.024071,
              34.251196
            ],
            [
              -92.024038,
              34.251198
            ],
            [
              -92.024035,
              34.251181
            ],
            [
              -92.023891,
              34.251179
            ],
            [
              -92.023888,
              34.251192
            ],
            [
              -92.023846,
              34.25119
            ],
            [
              -92.02384,
              34.251273
            ],
            [
              -92.023873,
              34.251271
            ],
            [
              -92.023882,
              34.251288
            ],
            [
              -92.023803,
              34.251287
            ],
            [
              -92.023777,
              34.251271
            ],
            [
              -92.023733,
              34.251275
            ],
            [
              -92.023738,
              34.251394
            ],
            [
              -92.02378,
              34.25139
            ],
            [
              -92.023798,
              34.251378
            ],
            [
              -92.023878,
              34.251379
            ],
            [
              -92.023881,
              34.25141
            ],
            [
              -92.023832,
              34.251413
            ],
            [
              -92.02383,
              34.251482
            ],
            [
              -92.023815,
              34.251469
            ],
            [
              -92.02376,
              34.251471
            ],
            [
              -92.023765,
              34.25151
            ],
            [
              -92.023784,
              34.251511
            ],
            [
              -92.023847,
              34.251566
            ],
            [
              -92.023853,
              34.251587
            ],
            [
              -92.023834,
              34.251589
            ],
            [
              -92.023833,
              34.251584
            ],
            [
              -92.023786,
              34.251581
            ],
            [
              -92.023703,
              34.251624
            ],
            [
              -92.02359,
              34.251638
            ]
          ]
        ]
      }
    },
    {
      "type": "Feature",
      "properties": {
        "building_id": "parker-ag-research",
        "name": "S.J. Parker Agriculture Research Bldg",
        "code": "PARB",
        "map_number": 4,
        "osm_id": null
      },
      "geometry": {
        "type": "Polygon",
        "coordinates": [
          [
            [
              -92.02377,
              34.252472
            ],
            [
              -92.023778,
              34.252664
            ],
            [
              -92.024415,
              34.252643
            ],
            [
              -92.02442,
              34.252729
            ],
            [
              -92.024631,
              34.252732
            ],
            [
              -92.024625,
              34.252455
            ],
            [
              -92.024508,
              34.252458
            ],
            [
              -92.024507,
              34.252429
            ],
            [
              -92.024425,
              34.252433
            ],
            [
              -92.024427,
              34.252453
            ],
            [
              -92.024428,
              34.252461
            ],
            [
              -92.024366,
              34.252464
            ],
            [
              -92.024368,
              34.252454
            ],
            [
              -92.024111,
              34.252459
            ],
            [
              -92.024106,
              34.252437
            ],
            [
              -92.024029,
              34.252439
            ],
            [
              -92.024022,
              34.252462
            ],
            [
              -92.02377,
              34.252472
            ]
          ]
        ]
      }
    }
  ]
}
